NORAD_CAT_ID,OBJECT_NAME,OBJECT_TYPE,EPOCH,MEAN_MOTION,ECCENTRICITY,INCLINATION,RA_OF_ASC_NODE,ARG_OF_PERICENTER,MEAN_ANOMALY,BSTAR,MEAN_MOTION_DOT,MEAN_MOTION_DDOT,TLE_LINE0,TLE_LINE1,TLE_LINE2,SEMIMAJOR_AXIS,PERIOD,APOGEE,PERIGEE,DECAYED
52124.0,STARLINK-3684,PAYLOAD,2022-03-22 16:00:00,15.84270756,0.0002038,53.2172,127.1171,0.3804,50.9171,-0.0042167,-0.00884053,0.0,0 STARLINK-3684,1 52124U 22029AN  22081.66667824 -.00884053  00000-0 -42167-2 0  9999,2 52124  53.2172 127.1171 0002038   0.3804  50.9171 15.84270756  1801,6696.516,90.894,319.746,317.016,0.0
52124.0,STARLINK-3684,PAYLOAD,2022-03-23 14:00:01,15.82533587,0.0001085,53.2172,122.5124,78.3719,161.1709,-0.0045178,-0.0087254999999999,0.0,0 STARLINK-3684,1 52124U 22029AN  22082.58334491 -.00872550  00000-0 -45178-2 0  9996,2 52124  53.2172 122.5124 0001085  78.3719 161.1709 15.82533587  1948,6701.416,90.993,324.008,322.553,0.0
52124.0,STARLINK-3684,PAYLOAD,2022-03-23 22:00:00,15.81906031,0.0001009,53.2174,120.8386,62.7114,276.5938,-0.0046735,-0.00875912,0.0,0 STARLINK-3684,1 52124U 22029AN  22082.91667824 -.00875912  00000-0 -46735-2 0  9997,2 52124  53.2174 120.8386 0001009  62.7114 276.5938 15.81906031  1473,6703.188,91.029,325.7290000000001,324.376,0.0
52124.0,STARLINK-3684,PAYLOAD,2022-03-24 06:00:00,15.8127869,0.0001163,53.2175,119.1694,53.6367,24.6723,-0.0048284,-0.00878504,0.0,0 STARLINK-3684,1 52124U 22029AN  22083.25001157 -.00878504  00000-0 -48284-2 0  9997,2 52124  53.2175 119.1694 0001163  53.6367  24.6723 15.81278690  2059,6704.9609999999975,91.066,327.605,326.046,0.0
52124.0,STARLINK-3684,PAYLOAD,2022-03-24 14:00:01,15.80646125,0.0001121,53.2173,117.5018,76.3772,100.1813,-0.0049356,-0.00872538,0.0,0 STARLINK-3684,1 52124U 22029AN  22083.58334491 -.00872538  00000-0 -49356-2 0  9995,2 52124  53.2173 117.5018 0001121  76.3772 100.1813 15.80646125  1583,6706.749,91.102,329.366,327.862,0.0
52124.0,STARLINK-3684,PAYLOAD,2022-03-24 22:00:00,15.80018042,0.0001118,53.2174,115.8326,65.6562,208.3961,-0.0050947,-0.00874638,0.0,0 STARLINK-3684,1 52124U 22029AN  22083.91667824 -.00874638  00000-0 -50947-2 0  9992,2 52124  53.2174 115.8326 0001118  65.6562 208.3961 15.80018042  1633,6708.526999999999,91.138,331.142,329.642,0.0
52124.0,STARLINK-3684,PAYLOAD,2022-03-25 00:00:02,15.79860982,0.0001075,53.2173,115.4158,57.6304,330.7431,-0.0051423,-0.00876256,0.0,0 STARLINK-3684,1 52124U 22029AN  22084.00002315 -.00876256  00000-0 -51423-2 0  9999,2 52124  53.2173 115.4158 0001075  57.6304 330.7431 15.79860982  2165,6708.971,91.147,331.557,330.115,0.0
52124.0,STARLINK-3684,PAYLOAD,2022-03-25 14:00:01,15.78760187,0.0001044,53.2171,112.5053,71.8701,34.8974,-0.0054004,-0.00875086,0.0,0 STARLINK-3684,1 52124U 22029AN  22084.58334491 -.00875086  00000-0 -54004-2 0  9993,2 52124  53.2171 112.5053 0001044  71.8701  34.8974 15.78760187  1742,6712.089,91.211,334.655,333.254,0.0
52124.0,STARLINK-3684,PAYLOAD,2022-03-25 20:00:01,15.78287689,9.8e-05,53.2175,111.2567,84.8065,3.4518,-0.0055117,-0.0087421,0.0,0 STARLINK-3684,1 52124U 22029AN  22084.83334491 -.00874210  00000-0 -55117-2 0  9995,2 52124  53.2175 111.2567 0000980  84.8065   3.4518 15.78287689  2307,6713.429,91.238,335.952,334.636,0.0
52124.0,STARLINK-3684,PAYLOAD,2022-03-25 22:00:01,15.78129894,0.0001114,53.2174,110.8407,85.6153,116.4439,-0.0055445,-0.00873289,0.0,0 STARLINK-3684,1 52124U 22029AN  22084.91668981 -.00873289  00000-0 -55445-2 0  9997,2 52124  53.2174 110.8407 0001114  85.6153 116.4439 15.78129894  1793,6713.876,91.247,336.4890000000001,334.994,0.0
52124.0,STARLINK-3684,PAYLOAD,2022-03-26 12:00:00,15.77027312,0.0001119,53.2176,107.9376,74.7811,202.0341,-0.0058105,-0.00871076,0.0,0 STARLINK-3684,1 52124U 22029AN  22085.50001157 -.00871076  00000-0 -58105-2 0  9997,2 52124  53.2176 107.9376 0001119  74.7811 202.0341 15.77027312  2406,6717.005,91.311,339.622,338.119,0.0
52124.0,STARLINK-3684,PAYLOAD,2022-03-26 14:00:01,15.76872841,9.87e-05,53.2171,107.5226,69.8143,320.3573,-0.0058783,-0.00874735,0.0,0 STARLINK-3684,1 52124U 22029AN  22085.58334491 -.00874735  00000-0 -58783-2 0  9992,2 52124  53.2171 107.5226 0000987  69.8143 320.3573 15.76872841  1905,6717.444,91.32,339.972,338.646,0.0
52124.0,STARLINK-3684,PAYLOAD,2022-03-26 22:00:00,15.76242281,0.0001281,53.2172,105.8628,49.0442,74.0845,-0.0060361,-0.00873535,0.0,0 STARLINK-3684,1 52124U 22029AN  22085.91667824 -.00873535  00000-0 -60361-2 0  9990,2 52124  53.2172 105.8628 0001281  49.0442  74.0845 15.76242281  1952,6719.235,91.357,341.961,340.24,0.0
52124.0,STARLINK-3684,PAYLOAD,2022-03-27 06:00:00,15.75611722,0.0001415,53.2174,104.208,51.1611,164.1666,-0.0061893999999999,-0.00871309,0.0,0 STARLINK-3684,1 52124U 22029AN  22086.25001157 -.00871309  00000-0 -61894-2 0  9998,2 52124  53.2174 104.2080 0001415  51.1611 164.1666 15.75611722  2525,6721.028,91.393,343.844,341.94199999999995,0.0
52124.0,STARLINK-3684,PAYLOAD,2022-03-27 14:00:01,15.74985336,0.000103,53.2172,102.5539,78.5119,228.2571,-0.0063913,-0.00874735,0.0,0 STARLINK-3684,1 52124U 22029AN  22086.58334491 -.00874735  00000-0 -63913-2 0  9994,2 52124  53.2172 102.5539 0001030  78.5119 228.2571 15.74985336  2062,6722.81,91.429,345.367,343.982,0.0
52124.0,STARLINK-3684,PAYLOAD,2022-03-27 22:00:01,15.743545,0.0001082,53.2173,100.8987,55.3673,342.1567,-0.0065638,-0.00873956,0.0,0 STARLINK-3684,1 52124U 22029AN  22086.91668981 -.00873956  00000-0 -65638-2 0  9995,2 52124  53.2173 100.8987 0001082  55.3673 342.1567 15.74354500  2116,6724.606,91.466,347.1980000000001,345.74300000000005,0.0
52124.0,STARLINK-3684,PAYLOAD,2022-03-28 06:00:00,15.73594913,0.0001336,53.2175,99.2488,44.1037,83.3084,-0.0039260999999999,-0.00527328,0.0,0 STARLINK-3684,1 52124U 22029AN  22087.25001157 -.00527328  00000-0 -39261-2 0  9991,2 52124  53.2175  99.2488 0001336  44.1037  83.3084 15.73594913  2680,6726.769,91.51,349.533,347.736,0.0
52124.0,STARLINK-3684,PAYLOAD,2022-03-28 14:00:01,15.73206613,0.0001334,53.2171,97.5988,53.6767,162.9656,-3.3371e-05,-5.302e-05,0.0,0 STARLINK-3684,1 52124U 22029AN  22087.58335648 -.00005302  00000-0 -33371-4 0  9993,2 52124  53.2171  97.5988 0001334  53.6767 162.9656 15.73206613  2221,6727.876,91.533,350.639,348.844,0.0
52124.0,STARLINK-3684,PAYLOAD,2022-03-28 22:00:00,15.7322992,9.940000000000004e-05,53.2166,95.9473,61.5509,244.0714,0.00028452,0.00039549,0.0,0 STARLINK-3684,1 52124U 22029AN  22087.91667824  .00039549  00000-0  28452-3 0  9995,2 52124  53.2166  95.9473 0000994  61.5509 244.0714 15.73229920  2783,6727.81,91.531,350.344,349.006,0.0
52124.0,STARLINK-3684,PAYLOAD,2022-03-29 04:00:00,15.73342508,0.0001135,53.2172,94.711,64.9843,217.3648,-0.0035866,-0.00479238,0.0,0 STARLINK-3684,1 52124U 22029AN  22088.16667824 -.00479238  00000-0 -35866-2 0  9994,2 52124  53.2172  94.7110 0001135  64.9843 217.3648 15.73342508  2823,6727.489000000001,91.525,350.117,348.59,0.0
52124.0,STARLINK-3684,PAYLOAD,2022-03-29 12:00:00,15.73211842,0.0001386999999999,53.2161,93.0633,56.7364,314.6158,-0.00013276,-0.00019219,0.0,0 STARLINK-3684,1 52124U 22029AN  22088.50001157 -.00019219  00000-0 -13276-3 0  9994,2 52124  53.2161  93.0633 0001387  56.7364 314.6158 15.73211842  2877,6727.861,91.532,350.66,348.793,0.0
52124.0,STARLINK-3684,PAYLOAD,2022-03-29 14:00:01,15.732203,0.0001394,53.2162,92.6502,58.9782,64.6044,-0.00052619,-0.00073886,0.0,0 STARLINK-3684,1 52124U 22029AN  22088.58334491 -.00073886  00000-0 -52619-3 0  9996,2 52124  53.2162  92.6502 0001394  58.9782  64.6044 15.73220300  2374,6727.837,91.532,350.64,348.764,0.0
52124.0,STARLINK-3684,PAYLOAD,2022-03-29 22:00:00,15.73127585,0.0001238,53.2165,90.9987,68.111,144.4039,0.00065298,0.00091741,0.0,0 STARLINK-3684,1 52124U 22029AN  22088.91667824  .00091741  00000-0  65298-3 0  9997,2 52124  53.2165  90.9987 0001238  68.1110 144.4039 15.73127585  2439,6728.102,91.537,350.8,349.134,0.0
52124.0,STARLINK-3684,PAYLOAD,2022-03-30 12:00:00,15.73233459,0.000121,53.2163,88.1142,54.409,223.7154,-0.00027887,-0.00039629,0.0,0 STARLINK-3684,1 52124U 22029AN  22089.50001157 -.00039629  00000-0 -27887-3 0  9995,2 52124  53.2163  88.1142 0001210  54.4090 223.7154 15.73233459  3038,6727.8,91.531,350.47900000000016,348.851,0.0
52124.0,STARLINK-3684,PAYLOAD,2022-03-30 14:00:01,15.73218744,0.0001147,53.2162,87.7012,56.1033,334.3308,-0.00014434,-0.00020843,0.0,0 STARLINK-3684,1 52124U 22029AN  22089.58335648 -.00020843  00000-0 -14434-3 0  9990,2 52124  53.2162  87.7012 0001147  56.1033 334.3308 15.73218744  2537,6727.842,91.532,350.478,348.935,0.0
52124.0,STARLINK-3684,PAYLOAD,2022-03-30 22:00:00,15.73222286,0.0001042,53.2162,86.05,70.3007,49.0042,-0.00013591,-0.00019667,0.0,0 STARLINK-3684,1 52124U 22029AN  22089.91667824 -.00019667  00000-0 -13591-3 0  9996,2 52124  53.2162  86.0500 0001042  70.3007  49.0042 15.73222286  2591,6727.831999999999,91.532,350.398,348.996,0.0
52124.0,STARLINK-3684,PAYLOAD,2022-03-31 06:00:00,15.73191169,0.0001158,53.2164,84.4023,61.5109,146.7532,-0.00014027,-0.0002025,0.0,0 STARLINK-3684,1 52124U 22029AN  22090.25001157 -.00020250  00000-0 -14027-3 0  9991,2 52124  53.2164  84.4023 0001158  61.5109 146.7532 15.73191169  3155,6727.92,91.534,350.564,349.006,0.0
52124.0,STARLINK-3684,PAYLOAD,2022-03-31 14:00:01,15.73210682,0.0001045,53.2163,82.7524,59.2639,237.9043,0.00026836,0.00037226,0.0,0 STARLINK-3684,1 52124U 22029AN  22090.58334491  .00037226  00000-0  26836-3 0  9997,2 52124  53.2163  82.7524 0001045  59.2639 237.9043 15.73210682  3206,6727.865,91.533,350.43300000000005,349.027,0.0
52124.0,STARLINK-3684,PAYLOAD,2022-03-31 22:00:00,15.73241732,0.0001072,53.2168,81.1009,74.8404,311.3074,0.00016962,0.00023293,0.0,0 STARLINK-3684,1 52124U 22029AN  22090.91667824  .00023293  00000-0  16962-3 0  9991,2 52124  53.2168  81.1009 0001072  74.8404 311.3074 15.73241732  2755,6727.776,91.531,350.362,348.92,0.0
